start=new Date('2023-02-05T00:00:00.000Z').valueOf();
sats=[{"CLASSIFICATION_TYPE":"U","ELEMENT_SET_NO":"999","EPHEMERIS_TYPE":"0","APOAPSIS":"548.114","LAUNCH_DATE":"2021-03-11","TLE_LINE1":"1 47838U 21018BD  23035.94455827  .00003437  00000-0  24946-3 0  9994","GP_ID":"224439868","RA_OF_ASC_NODE":"278.7601","NORAD_CAT_ID":"47838","TIME_SYSTEM":"UTC","BSTAR":"0.00024946000000","MEAN_ELEMENT_THEORY":"SGP4","OBJECT_ID":"2021-018BD","RCS_SIZE":"MEDIUM","PERIOD":"95.592","REV_AT_EPOCH":"10646","CENTER_NAME":"EARTH","EPOCH":"2023-02-04T22:40:09.834528","PERIAPSIS":"546.259","DECAY_DATE":null,"REF_FRAME":"TEME","INCLINATION":"53.0501","ARG_OF_PERICENTER":"81.2792","MEAN_MOTION":"15.06408767","TLE_LINE2":"2 47838  53.0501 278.7601 0001339  81.2792 278.8349 15.06408767106464","SITE":"AFETR","SEMIMAJOR_AXIS":"6925.322","OBJECT_NAME":"STARLINK-2429","MEAN_MOTION_DOT":"0.00003437","COUNTRY_CODE":"US","MEAN_ANOMALY":"278.8349","FILE":"3772514","OBJECT_TYPE":"PAYLOAD","MEAN_MOTION_DDOT":"0.0000000000000","ECCENTRICITY":"0.00013390"},{"OBJECT_ID":"2021-018BE","RCS_SIZE":"LARGE","PERIOD":"95.592","CENTER_NAME":"EARTH","REV_AT_EPOCH":"10689","ELEMENT_SET_NO":"999","CLASSIFICATION_TYPE":"U","EPHEMERIS_TYPE":"0","APOAPSIS":"548.039","LAUNCH_DATE":"2021-03-11","GP_ID":"224440116","TLE_LINE1":"1 47839U 21018BE  23035.90678054  .00000343  00000-0  41946-4 0  9993","RA_OF_ASC_NODE":"248.9208","NORAD_CAT_ID":"47839","TIME_SYSTEM":"UTC","BSTAR":"0.00004194600000","MEAN_ELEMENT_THEORY":"SGP4","MEAN_MOTION_DOT":"0.00000343","COUNTRY_CODE":"US","MEAN_ANOMALY":"260.8283","FILE":"3772514","OBJECT_TYPE":"PAYLOAD","MEAN_MOTION_DDOT":"0.0000000000000","ECCENTRICITY":"0.00011860","EPOCH":"2023-02-04T21:45:45.838656","DECAY_DATE":null,"PERIAPSIS":"546.396","ARG_OF_PERICENTER":"99.2841","INCLINATION":"53.0567","REF_FRAME":"TEME","TLE_LINE2":"2 47839  53.0567 248.9208 0001186  99.2841 260.8283 15.06398824106890","MEAN_MOTION":"15.06398824","SITE":"AFETR","SEMIMAJOR_AXIS":"6925.352","OBJECT_NAME":"STARLINK-2431"},{"NORAD_CAT_ID":"47840","GP_ID":"224440852","TLE_LINE1":"1 47840U 21018BF  23035.91691444  .00000894  00000-0  78865-4 0  9995","RA_OF_ASC_NODE":"258.8815","APOAPSIS":"547.929","LAUNCH_DATE":"2021-03-11","ELEMENT_SET_NO":"999","CLASSIFICATION_TYPE":"U","EPHEMERIS_TYPE":"0","MEAN_ELEMENT_THEORY":"SGP4","BSTAR":"0.00007886500000","TIME_SYSTEM":"UTC","PERIOD":"95.592","RCS_SIZE":"LARGE","OBJECT_ID":"2021-018BF","REV_AT_EPOCH":"10674","CENTER_NAME":"EARTH","MEAN_MOTION":"15.06399655","TLE_LINE2":"2 47840  53.0498 258.8815 0001031  98.8138 261.2967 15.06399655106743","DECAY_DATE":null,"PERIAPSIS":"546.501","ARG_OF_PERICENTER":"98.8138","REF_FRAME":"TEME","INCLINATION":"53.0498","EPOCH":"2023-02-04T22:00:21.407616","OBJECT_NAME":"STARLINK-2432","SEMIMAJOR_AXIS":"6925.350","SITE":"AFETR","FILE":"3772514","MEAN_ANOMALY":"261.2967","MEAN_MOTION_DOT":"0.00000894","COUNTRY_CODE":"US","ECCENTRICITY":"0.00010310","MEAN_MOTION_DDOT":"0.0000000000000","OBJECT_TYPE":"PAYLOAD"},{"PERIOD":"95.592","RCS_SIZE":"LARGE","OBJECT_ID":"2021-018BG","REV_AT_EPOCH":"10674","CENTER_NAME":"EARTH","NORAD_CAT_ID":"47841","TLE_LINE1":"1 47841U 21018BG  23035.91322626  .00001578  00000-0  12478-3 0  9996","RA_OF_ASC_NODE":"258.8938","GP_ID":"224439118","LAUNCH_DATE":"2021-03-11","APOAPSIS":"548.128","CLASSIFICATION_TYPE":"U","ELEMENT_SET_NO":"999","EPHEMERIS_TYPE":"0","MEAN_ELEMENT_THEORY":"SGP4","BSTAR":"0.00012478000000","TIME_SYSTEM":"UTC","FILE":"3772514","MEAN_ANOMALY":"268.4977","MEAN_MOTION_DOT":"0.00001578","COUNTRY_CODE":"US","ECCENTRICITY":"0.00013400","MEAN_MOTION_DDOT":"0.0000000000000","OBJECT_TYPE":"PAYLOAD","MEAN_MOTION":"15.06404481","TLE_LINE2":"2 47841  53.0533 258.8938 0001340  91.6166 268.4977 15.06404481106749","DECAY_DATE":null,"REF_FRAME":"TEME","PERIAPSIS":"546.272","INCLINATION":"53.0533","ARG_OF_PERICENTER":"91.6166","EPOCH":"2023-02-04T21:55:02.748864","OBJECT_NAME":"STARLINK-2433","SEMIMAJOR_AXIS":"6925.335","SITE":"AFETR"},{"MEAN_ANOMALY":"278.9281","FILE":"3772514","COUNTRY_CODE":"US","MEAN_MOTION_DOT":"0.00022610","MEAN_MOTION_DDOT":"0.0000000000000","OBJECT_TYPE":"PAYLOAD","ECCENTRICITY":"0.00013130","EPOCH":"2023-02-04T21:35:10.465152","MEAN_MOTION":"15.06422363","TLE_LINE2":"2 47842  53.0516 288.9645 0001313  81.1856 278.9281 15.06422363106372","DECAY_DATE":null,"PERIAPSIS":"546.236","INCLINATION":"53.0516","ARG_OF_PERICENTER":"81.1856","REF_FRAME":"TEME","SITE":"AFETR","SEMIMAJOR_AXIS":"6925.280","OBJECT_NAME":"STARLINK-2434","PERIOD":"95.591","OBJECT_ID":"2021-018BH","RCS_SIZE":"LARGE","CENTER_NAME":"EARTH","REV_AT_EPOCH":"10637","APOAPSIS":"548.054","LAUNCH_DATE":"2021-03-11","CLASSIFICATION_TYPE":"U","ELEMENT_SET_NO":"999","EPHEMERIS_TYPE":"0","NORAD_CAT_ID":"47842","TLE_LINE1":"1 47842U 21018BH  23035.89942668  .00022610  00000-0  15310-2 0  9995","RA_OF_ASC_NODE":"288.9645","GP_ID":"224439368","MEAN_ELEMENT_THEORY":"SGP4","TIME_SYSTEM":"UTC","BSTAR":"0.00153100000000"},{"SEMIMAJOR_AXIS":"6925.329","OBJECT_NAME":"STARLINK-2435","SITE":"AFETR","TLE_LINE2":"2 47843  53.0523 283.7845 0000996  92.1779 267.9324 15.06406472106412","MEAN_MOTION":"15.06406472","PERIAPSIS":"546.504","DECAY_DATE":null,"ARG_OF_PERICENTER":"92.1779","INCLINATION":"53.0523","REF_FRAME":"TEME","EPOCH":"2023-02-04T22:31:32.354688","ECCENTRICITY":"0.00009960","MEAN_MOTION_DDOT":"0.0000000000000","OBJECT_TYPE":"PAYLOAD","MEAN_ANOMALY":"267.9324","FILE":"3772514","COUNTRY_CODE":"US","MEAN_MOTION_DOT":"0.00004285","MEAN_ELEMENT_THEORY":"SGP4","TIME_SYSTEM":"UTC","BSTAR":"0.00030631000000","NORAD_CAT_ID":"47843","RA_OF_ASC_NODE":"283.7845","TLE_LINE1":"1 47843U 21018BJ  23035.93856892  .00004285  00000-0  30631-3 0  9996","GP_ID":"224440617","LAUNCH_DATE":"2021-03-11","APOAPSIS":"547.883","EPHEMERIS_TYPE":"0","ELEMENT_SET_NO":"999","CLASSIFICATION_TYPE":"U","REV_AT_EPOCH":"10641","CENTER_NAME":"EARTH","PERIOD":"95.592","OBJECT_ID":"2021-018BJ","RCS_SIZE":"LARGE"},{"FILE":"3772514","MEAN_ANOMALY":"268.5820","MEAN_MOTION_DOT":"0.00002822","COUNTRY_CODE":"US","ECCENTRICITY":"0.00013150","MEAN_MOTION_DDOT":"0.0000000000000","OBJECT_TYPE":"PAYLOAD","MEAN_MOTION":"15.06408046","TLE_LINE2":"2 47844  53.0524 278.7878 0001315  91.5319 268.5820 15.06408046106465","DECAY_DATE":null,"PERIAPSIS":"546.278","INCLINATION":"53.0524","REF_FRAME":"TEME","ARG_OF_PERICENTER":"91.5319","EPOCH":"2023-02-04T22:29:32.991360","OBJECT_NAME":"STARLINK-2446","SEMIMAJOR_AXIS":"6925.324","SITE":"AFETR","PERIOD":"95.592","RCS_SIZE":"LARGE","OBJECT_ID":"2021-018BK","REV_AT_EPOCH":"10646","CENTER_NAME":"EARTH","NORAD_CAT_ID":"47844","GP_ID":"224440352","TLE_LINE1":"1 47844U 21018BK  23035.93718740  .00002822  00000-0  20820-3 0  9990","RA_OF_ASC_NODE":"278.7878","LAUNCH_DATE":"2021-03-11","APOAPSIS":"548.100","ELEMENT_SET_NO":"999","CLASSIFICATION_TYPE":"U","EPHEMERIS_TYPE":"0","MEAN_ELEMENT_THEORY":"SGP4","BSTAR":"0.00020820000000","TIME_SYSTEM":"UTC"},{"REV_AT_EPOCH":"10646","CENTER_NAME":"EARTH","RCS_SIZE":"LARGE","OBJECT_ID":"2021-018BL","PERIOD":"95.592","BSTAR":"0.00015267000000","TIME_SYSTEM":"UTC","MEAN_ELEMENT_THEORY":"SGP4","ELEMENT_SET_NO":"999","EPHEMERIS_TYPE":"0","CLASSIFICATION_TYPE":"U","APOAPSIS":"548.118","LAUNCH_DATE":"2021-03-11","RA_OF_ASC_NODE":"279.0027","TLE_LINE1":"1 47845U 21018BL  23035.88927092  .00001994  00000-0  15267-3 0  9995","GP_ID":"224439619","NORAD_CAT_ID":"47845","OBJECT_TYPE":"PAYLOAD","MEAN_MOTION_DDOT":"0.0000000000000","ECCENTRICITY":"0.00013300","COUNTRY_CODE":"US","MEAN_MOTION_DOT":"0.00001994","FILE":"3772514","MEAN_ANOMALY":"275.6341","SITE":"AFETR","OBJECT_NAME":"STARLINK-2453","SEMIMAJOR_AXIS":"6925.332","EPOCH":"2023-02-04T21:20:33.007488","DECAY_DATE":null,"ARG_OF_PERICENTER":"84.4799","PERIAPSIS":"546.276","REF_FRAME":"TEME","INCLINATION":"53.0525","TLE_LINE2":"2 47845  53.0525 279.0027 0001330  84.4799 275.6341 15.06405298106460","MEAN_MOTION":"15.06405298"},{"CENTER_NAME":"EARTH","REV_AT_EPOCH":"10650","OBJECT_ID":"2021-018BM","RCS_SIZE":"LARGE","PERIOD":"95.592","TIME_SYSTEM":"UTC","BSTAR":"0.00028172000000","MEAN_ELEMENT_THEORY":"SGP4","GP_ID":"224439869","TLE_LINE1":"1 47846U 21018BM  23035.81829529  .00003918  00000-0  28172-3 0  9992","RA_OF_ASC_NODE":"279.3080","NORAD_CAT_ID":"47846","CLASSIFICATION_TYPE":"U","ELEMENT_SET_NO":"999","EPHEMERIS_TYPE":"0","APOAPSIS":"548.104","LAUNCH_DATE":"2021-03-11","ECCENTRICITY":"0.00013120","OBJECT_TYPE":"PAYLOAD","MEAN_MOTION_DDOT":"0.0000000000000","COUNTRY_CODE":"US","MEAN_MOTION_DOT":"0.00003918","MEAN_ANOMALY":"263.3008","FILE":"3772514","SEMIMAJOR_AXIS":"6925.331","OBJECT_NAME":"STARLINK-2456","SITE":"AFETR","INCLINATION":"53.0515","DECAY_DATE":null,"PERIAPSIS":"546.287","REF_FRAME":"TEME","ARG_OF_PERICENTER":"96.8130","TLE_LINE2":"2 47846  53.0515 279.3080 0001312  96.8130 263.3008 15.06405875106508","MEAN_MOTION":"15.06405875","EPOCH":"2023-02-04T19:38:20.713056"},{"MEAN_ANOMALY":"262.4276","FILE":"3771952","COUNTRY_CODE":"US","MEAN_MOTION_DOT":"0.00001640","ECCENTRICITY":"0.00014850","MEAN_MOTION_DDOT":"0.0000000000000","OBJECT_TYPE":"PAYLOAD","TLE_LINE2":"2 47860  53.0540 312.2618 0001485  97.6882 262.4276 15.06395883105705","MEAN_MOTION":"15.06395883","REF_FRAME":"TEME","DECAY_DATE":null,"PERIAPSIS":"546.198","ARG_OF_PERICENTER":"97.6882","INCLINATION":"53.0540","EPOCH":"2023-02-04T03:50:57.058368","SEMIMAJOR_AXIS":"6925.361","OBJECT_NAME":"STARLINK-2258","SITE":"AFETR","PERIOD":"95.592","OBJECT_ID":"2021-021A","RCS_SIZE":"LARGE","REV_AT_EPOCH":"10570","CENTER_NAME":"EARTH","NORAD_CAT_ID":"47860","TLE_LINE1":"1 47860U 21021A   23035.16038262  .00001640  00000-0  12896-3 0  9992","GP_ID":"224401956","RA_OF_ASC_NODE":"312.2618","LAUNCH_DATE":"2021-03-14","APOAPSIS":"548.255","EPHEMERIS_TYPE":"0","ELEMENT_SET_NO":"999","CLASSIFICATION_TYPE":"U","MEAN_ELEMENT_THEORY":"SGP4","TIME_SYSTEM":"UTC","BSTAR":"0.00012896000000"}];
